SKYSAT-B                
1 40072U 14037D   26087.83018725  .00001800  00000+0  20380-3 0  9999
2 40072  98.3759  42.2670 0005685 165.3620 194.7760 14.87796013634018
